ALOS (DAICHI)           
1 28931U 06002A   26036.77792319  .00002319  00000+0  39757-3 0  9991
2 28931  98.1167 352.9077 0002035  68.3188 291.8234 14.69703869 68796
H-2A R/B                
1 28932U 06002B   26036.92878256  .00012682  00000+0  64452-3 0  9998
2 28932  98.2365 181.2515 0053011 350.5681   9.4548 15.15785430 89624
RESURS-DK 1             
1 29228U 06021A   26036.92613166  .00004474  00000+0  26201-3 0  9995
2 29228  69.9351 319.1750 0004852 207.6347 152.4561 15.12555233 82727
CZ-4B R/B               
1 29507U 06046C   26037.00806874  .00007597  00000+0  38706-3 0  9994
2 29507  97.5649  81.9991 0033978  20.0231 340.2326 15.16558548 55244
CZ-2C R/B               
1 31114U 07010B   26036.88236249  .00000154  00000+0  89478-4 0  9996
2 31114  98.3970 151.7589 0059442  27.7511 332.6817 14.20235017975209
COSMO-SKYMED 1          
1 31598U 07023A   26037.16956164  .00006468  00000+0  57748-3 0  9991
2 31598  97.8856 227.9562 0001032  74.0234 286.1100 14.96287625 10199
COSMOS 2428             
1 31792U 07029A   26037.03079931  .00000362  00000+0  21986-3 0  9999
2 31792  70.9397 269.8006 0007132 312.1063  47.9451 14.12930847959629
SL-16 R/B               
1 31793U 07029B   26037.04308219  .00000451  00000+0  25854-3 0  9992
2 31793  70.9731 238.9068 0001870 275.8819 205.8255 14.14829359960899
KORONAS-FOTON           
1 33504U 09003A   26037.17982314  .00013767  00000+0  31636-3 0  9995
2 33504  82.4329 308.6125 0008894 273.1505  86.8724 15.42498455940883
CZ-2C R/B               
1 37731U 11030B   26036.86003222  .00002222  00000+0  28585-3 0  9994
2 37731  97.8491 354.7766 0054224  93.7461 324.5314 14.81100512785382
H-2A R/B                
1 38341U 12025E   26036.87034080  .00005425  00000+0  49322-3 0  9994
2 38341  98.4683   1.3917 0046121  57.6604 302.9067 14.94888976743467
SHIJIAN-16 (SJ-16)      
1 39358U 13057A   26037.18633101  .00001274  00000+0  12750-3 0  9996
2 39358  74.9700 244.7235 0016939 190.7414 169.3415 14.92231767666805
